{
	"type": "FeatureCollection",
	"name": "METNO_TOPAZ5_ARC",
	"crs": {
		"type": "name",
		"properties": {
			"name": "urn:ogc:def:crs:OGC:1.3:CRS84"
		}
	},
	"features": [
		{
			"type": "Feature",
			"properties": {
				"ogc_fid": 1,
				"ogc_fid0": 1,
				"dn": -3
			},
			"geometry": {
				"type": "Polygon",
				"coordinates": [
					[
						[
							178.4509466437177,
							57.98615261771721
						],
						[
							178.2444061962134,
							57.98615261771721
						],
						[
							178.2444061962134,
							58.08942309314393
						],
						[
							178.03786574870912,
							58.08942309314393
						],
						[
							178.03786574870912,
							58.295964043997365
						],
						[
							177.8313253012048,
							58.295964043997365
						],
						[
							177.8313253012048,
							58.399234519424084
						],
						[
							177.62478485370053,
							58.399234519424084
						],
						[
							177.62478485370053,
							58.5025049948508
						],
						[
							177.4182444061962,
							58.5025049948508
						],
						[
							177.4182444061962,
							58.60577547027752
						],
						[
							177.10843373493975,
							58.60577547027752
						],
						[
							177.10843373493975,
							58.81231642113096
						],
						[
							176.90189328743543,
							58.81231642113096
						],
						[
							176.90189328743543,
							58.91558689655768
						],
						[
							176.59208261617897,
							58.91558689655768
						],
						[
							176.59208261617897,
							59.018857371984396
						],
						[
							176.3855421686747,
							59.018857371984396
						],
						[
							176.3855421686747,
							59.122127847411114
						],
						[
							176.17900172117038,
							59.122127847411114
						],
						[
							176.17900172117038,
							59.22539832283783
						],
						[
							175.97246127366606,
							59.22539832283783
						],
						[
							175.97246127366606,
							59.32866879826456
						],
						[
							175.86919104991392,
							59.32866879826456
						],
						[
							175.86919104991392,
							59.43193927369127
						],
						[
							175.66265060240965,
							59.43193927369127
						],
						[
							175.66265060240965,
							59.535209749117996
						],
						[
							175.3528399311532,
							59.535209749117996
						],
						[
							175.3528399311532,
							59.63848022454471
						],
						[
							175.14629948364887,
							59.63848022454471
						],
						[
							175.14629948364887,
							59.74175069997143
						],
						[
							174.93975903614455,
							59.74175069997143
						],
						[
							174.93975903614455,
							59.845021175398145
						],
						[
							174.6299483648881,
							59.845021175398145
						],
						[
							174.6299483648881,
							60.05156212625158
						],
						[
							174.32013769363164,
							60.05156212625158
						],
						[
							174.32013769363164,
							60.15483260167831
						],
						[
							174.11359724612737,
							60.15483260167831
						],
						[
							174.11359724612737,
							60.25810307710502
						],
						[
							173.90705679862304,
							60.25810307710502
						],
						[
							173.8037865748709,
							60.25810307710502
						],
						[
							173.8037865748709,
							60.361373552531745
						],
						[
							173.5972461273666,
							60.361373552531745
						],
						[
							173.5972461273666,
							60.46464402795846
						],
						[
							173.28743545611013,
							60.46464402795846
						],
						[
							173.28743545611013,
							60.56791450338518
						],
						[
							173.184165232358,
							60.56791450338518
						],
						[
							172.97762478485367,
							60.56791450338518
						],
						[
							172.97762478485367,
							60.671184978811894
						],
						[
							172.87435456110154,
							60.671184978811894
						],
						[
							172.87435456110154,
							60.77445545423862
						],
						[
							172.66781411359722,
							60.77445545423862
						],
						[
							172.66781411359722,
							60.87772592966533
						],
						[
							172.35800344234076,
							60.87772592966533
						],
						[
							172.35800344234076,
							60.98099640509206
						],
						[
							172.1514629948365,
							60.98099640509206
						],
						[
							172.1514629948365,
							61.08426688051877
						],
						[
							172.35800344234076,
							61.08426688051877
						],
						[
							172.35800344234076,
							61.187537355945494
						],
						[
							172.66781411359722,
							61.187537355945494
						],
						[
							172.66781411359722,
							61.290807831372206
						],
						[
							172.7710843373494,
							61.290807831372206
						],
						[
							172.7710843373494,
							61.39407830679893
						],
						[
							173.08089500860586,
							61.39407830679893
						],
						[
							173.08089500860586,
							61.49734878222564
						],
						[
							173.28743545611013,
							61.49734878222564
						],
						[
							173.28743545611013,
							61.60061925765237
						],
						[
							173.28743545611013,
							61.70388973307908
						],
						[
							173.49397590361445,
							61.70388973307908
						],
						[
							173.49397590361445,
							61.807160208505806
						],
						[
							173.5972461273666,
							61.807160208505806
						],
						[
							173.5972461273666,
							61.70388973307908
						],
						[
							173.90705679862304,
							61.70388973307908
						],
						[
							173.90705679862304,
							61.807160208505806
						],
						[
							174.6299483648881,
							61.807160208505806
						],
						[
							174.6299483648881,
							61.91043068393252
						],
						[
							175.04302925989674,
							61.91043068393252
						],
						[
							175.04302925989674,
							62.01370115935924
						],
						[
							175.249569707401,
							62.01370115935924
						],
						[
							175.3528399311532,
							62.01370115935924
						],
						[
							175.3528399311532,
							62.116971634785955
						],
						[
							175.55938037865746,
							62.116971634785955
						],
						[
							175.55938037865746,
							62.22024211021268
						],
						[
							175.97246127366606,
							62.22024211021268
						],
						[
							175.97246127366606,
							62.32351258563939
						],
						[
							176.07573149741825,
							62.32351258563939
						],
						[
							176.07573149741825,
							62.22024211021268
						],
						[
							176.17900172117038,
							62.22024211021268
						],
						[
							176.17900172117038,
							62.32351258563939
						],
						[
							176.3855421686747,
							62.32351258563939
						],
						[
							176.3855421686747,
							62.42678306106612
						],
						[
							176.90189328743543,
							62.42678306106612
						],
						[
							176.90189328743543,
							62.53005353649283
						],
						[
							177.31497418244407,
							62.53005353649283
						],
						[
							177.31497418244407,
							62.633324011919555
						],
						[
							177.52151462994834,
							62.633324011919555
						],
						[
							177.72805507745267,
							62.633324011919555
						],
						[
							177.72805507745267,
							62.53005353649283
						],
						[
							178.14113597246126,
							62.53005353649283
						],
						[
							178.14113597246126,
							62.42678306106612
						],
						[
							178.76075731497417,
							62.42678306106612
						],
						[
							178.76075731497417,
							62.32351258563939
						],
						[
							178.9672977624785,
							62.32351258563939
						],
						[
							179.17383820998276,
							62.32351258563939
						],
						[
							179.17383820998276,
							62.42678306106612
						],
						[
							179.38037865748708,
							62.42678306106612
						],
						[
							179.38037865748708,
							62.633324011919555
						],
						[
							179.48364888123922,
							62.633324011919555
						],
						[
							179.48364888123922,
							62.943135438199704
						],
						[
							179.38037865748708,
							62.943135438199704
						],
						[
							179.38037865748708,
							63.04640591362643
						],
						[
							179.38037865748708,
							63.14967638905314
						],
						[
							179.48364888123922,
							63.14967638905314
						],
						[
							179.48364888123922,
							63.25294686447987
						],
						[
							179.27710843373495,
							63.25294686447987
						],
						[
							179.27710843373495,
							63.459487815333304
						],
						[
							178.9672977624785,
							63.459487815333304
						],
						[
							178.9672977624785,
							63.562758290760016
						],
						[
							178.76075731497417,
							63.562758290760016
						],
						[
							178.76075731497417,
							63.66602876618674
						],
						[
							178.65748709122204,
							63.66602876618674
						],
						[
							178.65748709122204,
							64.07911066789361
						],
						[
							178.76075731497417,
							64.07911066789361
						],
						[
							178.76075731497417,
							64.18238114332033
						],
						[
							178.65748709122204,
							64.18238114332033
						],
						[
							178.65748709122204,
							64.28565161874705
						],
						[
							178.76075731497417,
							64.28565161874705
						],
						[
							178.76075731497417,
							64.38892209417376
						],
						[
							178.8640275387263,
							64.38892209417376
						],
						[
							178.8640275387263,
							64.49219256960049
						],
						[
							179.07056798623063,
							64.49219256960049
						],
						[
							179.07056798623063,
							64.69873352045393
						],
						[
							179.38037865748708,
							64.69873352045393
						],
						[
							179.38037865748708,
							64.80200399588064
						],
						[
							179.5869191049914,
							64.80200399588064
						],
						[
							179.5869191049914,
							64.90527447130736
						],
						[
							179.69018932874354,
							64.90527447130736
						],
						[
							179.79345955249568,
							64.90527447130736
						],
						[
							179.79345955249568,
							65.00854494673407
						],
						[
							180,
							65.00854494673407
						],
						[
							180,
							64.80200399588064
						],
						[
							180,
							64.5954630450272
						],
						[
							180,
							64.49219256960049
						],
						[
							180,
							64.28565161874705
						],
						[
							180,
							63.14967638905314
						],
						[
							180,
							62.633324011919555
						],
						[
							180,
							62.116971634785955
						],
						[
							180,
							61.807160208505806
						],
						[
							180,
							60.98099640509206
						],
						[
							180,
							60.15483260167831
						],
						[
							180,
							60.05156212625158
						],
						[
							180,
							59.535209749117996
						],
						[
							180,
							59.32866879826456
						],
						[
							180,
							58.70904594570424
						],
						[
							180,
							58.60577547027752
						],
						[
							180,
							57.05671833887674
						],
						[
							179.79345955249568,
							57.05671833887674
						],
						[
							179.79345955249568,
							57.15998881430346
						],
						[
							179.5869191049914,
							57.15998881430346
						],
						[
							179.5869191049914,
							57.3665297651569
						],
						[
							179.38037865748708,
							57.3665297651569
						],
						[
							179.38037865748708,
							57.469800240583616
						],
						[
							179.17383820998276,
							57.469800240583616
						],
						[
							179.17383820998276,
							57.573070716010335
						],
						[
							178.9672977624785,
							57.573070716010335
						],
						[
							178.9672977624785,
							57.676341191437054
						],
						[
							178.8640275387263,
							57.676341191437054
						],
						[
							178.8640275387263,
							57.77961166686377
						],
						[
							178.65748709122204,
							57.77961166686377
						],
						[
							178.65748709122204,
							57.88288214229049
						],
						[
							178.4509466437177,
							57.88288214229049
						],
						[
							178.4509466437177,
							57.98615261771721
						]
					]
				]
			}
		},
		{
			"type": "Feature",
			"properties": {
				"ogc_fid": 2,
				"ogc_fid0": 1,
				"dn": -3
			},
			"geometry": {
				"type": "Polygon",
				"coordinates": [
					[
						[
							-173.28743545611016,
							51.99646504296753
						],
						[
							-173.3907056798623,
							51.99646504296753
						],
						[
							-173.3907056798623,
							52.09973551839425
						],
						[
							-173.90705679862307,
							52.09973551839425
						],
						[
							-173.90705679862307,
							52.203005993820966
						],
						[
							-174.0103270223752,
							52.203005993820966
						],
						[
							-174.0103270223752,
							52.306276469247685
						],
						[
							-174.11359724612737,
							52.306276469247685
						],
						[
							-174.21686746987953,
							52.306276469247685
						],
						[
							-178.03786574870912,
							55.7142021583294
						],
						[
							-178.24440619621342,
							55.7142021583294
						],
						[
							-178.24440619621342,
							55.81747263375612
						],
						[
							-178.4509466437177,
							55.81747263375612
						],
						[
							-178.4509466437177,
							56.024013584609555
						],
						[
							-178.55421686746987,
							56.024013584609555
						],
						[
							-178.65748709122204,
							56.024013584609555
						],
						[
							-178.65748709122204,
							56.127284060036274
						],
						[
							-178.76075731497417,
							56.127284060036274
						],
						[
							-178.76075731497417,
							56.23055453546299
						],
						[
							-178.9672977624785,
							56.23055453546299
						],
						[
							-178.9672977624785,
							56.33382501088971
						],
						[
							-179.07056798623063,
							56.33382501088971
						],
						[
							-179.07056798623063,
							56.43709548631643
						],
						[
							-179.1738382099828,
							56.43709548631643
						],
						[
							-179.1738382099828,
							56.54036596174315
						],
						[
							-179.38037865748708,
							56.54036596174315
						],
						[
							-179.38037865748708,
							56.64363643716987
						],
						[
							-179.58691910499138,
							56.64363643716987
						],
						[
							-179.58691910499138,
							56.746906912596586
						],
						[
							-179.69018932874354,
							56.746906912596586
						],
						[
							-179.69018932874354,
							56.850177388023305
						],
						[
							-179.7934595524957,
							56.850177388023305
						],
						[
							-179.7934595524957,
							56.95344786345002
						],
						[
							-180,
							56.95344786345002
						],
						[
							-180,
							58.399234519424084
						],
						[
							-180,
							58.81231642113096
						],
						[
							-180,
							59.32866879826456
						],
						[
							-180,
							59.43193927369127
						],
						[
							-180,
							59.74175069997143
						],
						[
							-180,
							59.845021175398145
						],
						[
							-180,
							59.94829165082487
						],
						[
							-180,
							60.15483260167831
						],
						[
							-180,
							60.98099640509206
						],
						[
							-180,
							61.807160208505806
						],
						[
							-180,
							62.116971634785955
						],
						[
							-180,
							62.633324011919555
						],
						[
							-180,
							63.14967638905314
						],
						[
							-180,
							65.00854494673407
						],
						[
							-180,
							68.9328230129494
						],
						[
							-180,
							70.0687982426433
						],
						[
							-180,
							70.89496204605704
						],
						[
							-179.89672977624784,
							70.89496204605704
						],
						[
							-179.89672977624784,
							70.99823252148377
						],
						[
							-180,
							71.51458489861736
						],
						[
							-180,
							72.3407487020311
						],
						[
							-180,
							75.33559248940595
						],
						[
							-180,
							76.78137914538001
						],
						[
							-180,
							79.77622293275485
						],
						[
							-180,
							83.18414862183657
						],
						[
							-180,
							87.21169716347859
						],
						[
							-180,
							87.31496763890531
						],
						[
							-180,
							89.9
						],
						[
							180,
							89.9
						],
						[
							180,
							83.18414862183657
						],
						[
							180,
							79.87949340818157
						],
						[
							180,
							76.78137914538001
						],
						[
							180,
							75.33559248940595
						],
						[
							180,
							72.3407487020311
						],
						[
							180,
							71.51458489861736
						],
						[
							179.79345955249568,
							71.51458489861736
						],
						[
							179.79345955249568,
							71.41131442319064
						],
						[
							179.48364888123922,
							71.41131442319064
						],
						[
							179.48364888123922,
							71.30804394776392
						],
						[
							179.07056798623063,
							71.30804394776392
						],
						[
							179.07056798623063,
							71.2047734723372
						],
						[
							179.07056798623063,
							71.10150299691048
						],
						[
							178.76075731497417,
							71.10150299691048
						],
						[
							178.76075731497417,
							70.99823252148377
						],
						[
							178.76075731497417,
							70.89496204605704
						],
						[
							178.8640275387263,
							70.89496204605704
						],
						[
							179.07056798623063,
							70.89496204605704
						],
						[
							179.27710843373495,
							70.89496204605704
						],
						[
							179.27710843373495,
							70.79169157063032
						],
						[
							179.48364888123922,
							70.79169157063032
						],
						[
							179.48364888123922,
							70.89496204605704
						],
						[
							180,
							70.89496204605704
						],
						[
							180,
							70.0687982426433
						],
						[
							180,
							69.03609348837611
						],
						[
							179.79345955249568,
							69.03609348837611
						],
						[
							179.79345955249568,
							69.13936396380282
						],
						[
							179.48364888123922,
							69.13936396380282
						],
						[
							179.48364888123922,
							69.24263443922955
						],
						[
							179.17383820998276,
							69.24263443922955
						],
						[
							179.17383820998276,
							69.34590491465627
						],
						[
							179.07056798623063,
							69.34590491465627
						],
						[
							179.07056798623063,
							69.24263443922955
						],
						[
							178.9672977624785,
							69.24263443922955
						],
						[
							178.9672977624785,
							69.34590491465627
						],
						[
							178.65748709122204,
							69.34590491465627
						],
						[
							178.65748709122204,
							69.44917539008298
						],
						[
							178.55421686746985,
							69.44917539008298
						],
						[
							178.55421686746985,
							69.34590491465627
						],
						[
							178.4509466437177,
							69.34590491465627
						],
						[
							178.4509466437177,
							69.44917539008298
						],
						[
							178.34767641996558,
							69.44917539008298
						],
						[
							178.34767641996558,
							69.34590491465627
						],
						[
							2.472514787754568,
							46.554415143408164
						],
						[
							-4.750430292598963,
							48.485268878459095
						],
						[
							-4.750430292598963,
							48.38199840303238
						],
						[
							-4.853700516351125,
							48.38199840303238
						],
						[
							-4.956970740103287,
							48.38199840303238
						],
						[
							-4.956970740103287,
							48.27872792760566
						],
						[
							-5.060240963855421,
							48.27872792760566
						],
						[
							-5.163511187607583,
							48.27872792760566
						],
						[
							-5.163511187607583,
							48.17545745217894
						],
						[
							-5.370051635111878,
							48.17545745217894
						],
						[
							-5.370051635111878,
							48.27872792760566
						],
						[
							-5.47332185886404,
							48.27872792760566
						],
						[
							-5.47332185886404,
							48.38199840303238
						],
						[
							-5.576592082616173,
							48.38199840303238
						],
						[
							-5.576592082616173,
							48.27872792760566
						],
						[
							-5.679862306368335,
							48.27872792760566
						],
						[
							-5.679862306368335,
							48.38199840303238
						],
						[
							-5.783132530120497,
							48.38199840303238
						],
						[
							-5.989672977624792,
							48.38199840303238
						],
						[
							-5.989672977624792,
							48.485268878459095
						],
						[
							-6.29948364888125,
							48.485268878459095
						],
						[
							-6.29948364888125,
							48.588539353885814
						],
						[
							-6.402753872633383,
							48.588539353885814
						],
						[
							-6.609294320137707,
							48.588539353885814
						],
						[
							-6.609294320137707,
							48.69180982931253
						],
						[
							-6.919104991394164,
							48.69180982931253
						],
						[
							-7.022375215146297,
							48.69180982931253
						],
						[
							-7.022375215146297,
							48.79508030473925
						],
						[
							-7.332185886402755,
							48.79508030473925
						],
						[
							-7.332185886402755,
							48.89835078016597
						],
						[
							-7.641996557659212,
							48.89835078016597
						],
						[
							-7.641996557659212,
							49.00162125559269
						],
						[
							-7.848537005163507,
							49.00162125559269
						],
						[
							-7.951807228915669,
							49.00162125559269
						],
						[
							-7.951807228915669,
							49.10489173101941
						],
						[
							-8.36488812392426,
							49.10489173101941
						],
						[
							-8.36488812392426,
							49.208162206446126
						],
						[
							-8.674698795180717,
							49.208162206446126
						],
						[
							-8.777969018932879,
							49.208162206446126
						],
						[
							-8.777969018932879,
							49.311432681872844
						],
						[
							-8.984509466437174,
							49.311432681872844
						],
						[
							-8.984509466437174,
							49.41470315729956
						],
						[
							-9.087779690189336,
							49.41470315729956
						],
						[
							-9.087779690189336,
							49.311432681872844
						],
						[
							-9.191049913941498,
							49.311432681872844
						],
						[
							-9.191049913941498,
							49.41470315729956
						],
						[
							-9.500860585197926,
							49.41470315729956
						],
						[
							-9.500860585197926,
							49.51797363272628
						],
						[
							-9.70740103270225,
							49.51797363272628
						],
						[
							-9.810671256454384,
							49.51797363272628
						],
						[
							-9.810671256454384,
							49.621244108153
						],
						[
							-10.223752151463003,
							49.621244108153
						],
						[
							-10.223752151463003,
							49.72451458357972
						],
						[
							-10.327022375215136,
							49.72451458357972
						],
						[
							-10.53356282271946,
							49.72451458357972
						],
						[
							-10.53356282271946,
							49.82778505900644
						],
						[
							-10.636833046471594,
							49.82778505900644
						],
						[
							-10.636833046471594,
							49.72451458357972
						],
						[
							-10.740103270223755,
							49.72451458357972
						],
						[
							-10.740103270223755,
							49.82778505900644
						],
						[
							-10.946643717728051,
							49.82778505900644
						],
						[
							-11.049913941480213,
							49.82778505900644
						],
						[
							-11.049913941480213,
							49.931055534433156
						],
						[
							-11.462994836488803,
							49.931055534433156
						],
						[
							-11.462994836488803,
							50.034326009859875
						],
						[
							-11.566265060240965,
							50.034326009859875
						],
						[
							-11.876075731497422,
							50.034326009859875
						],
						[
							-11.876075731497422,
							50.13759648528659
						],
						[
							-12.289156626506042,
							50.13759648528659
						],
						[
							-12.289156626506042,
							50.24086696071331
						],
						[
							-12.805507745266794,
							50.24086696071331
						],
						[
							-12.805507745266794,
							50.34413743614003
						],
						[
							-13.218588640275385,
							50.34413743614003
						],
						[
							-13.218588640275385,
							50.44740791156675
						],
						[
							-13.631669535284004,
							50.44740791156675
						],
						[
							-13.631669535284004,
							50.55067838699347
						],
						[
							-13.734939759036137,
							50.55067838699347
						],
						[
							-14.044750430292595,
							50.55067838699347
						],
						[
							-14.044750430292595,
							50.65394886242019
						],
						[
							-14.457831325301214,
							50.65394886242019
						],
						[
							-14.457831325301214,
							50.757219337846905
						],
						[
							-14.66437177280551,
							50.757219337846905
						],
						[
							-14.870912220309804,
							50.757219337846905
						],
						[
							-15.077452667814128,
							50.757219337846905
						],
						[
							-15.077452667814128,
							50.860489813273624
						],
						[
							-15.283993115318423,
							50.860489813273624
						],
						[
							-15.387263339070585,
							50.860489813273624
						],
						[
							-15.49053356282272,
							50.860489813273624
						],
						[
							-15.49053356282272,
							50.96376028870034
						],
						[
							-15.903614457831338,
							50.96376028870034
						],
						[
							-15.903614457831338,
							51.06703076412706
						],
						[
							-16.41996557659209,
							51.06703076412706
						],
						[
							-16.523235800344224,
							51.06703076412706
						],
						[
							-16.523235800344224,
							51.17030123955378
						],
						[
							-17.039586919105005,
							51.17030123955378
						],
						[
							-17.039586919105005,
							51.2735717149805
						],
						[
							-17.555938037865758,
							51.2735717149805
						],
						[
							-17.555938037865758,
							51.37684219040722
						],
						[
							-17.65920826161789,
							51.37684219040722
						],
						[
							-17.65920826161789,
							51.2735717149805
						],
						[
							-17.762478485370053,
							51.2735717149805
						],
						[
							-17.762478485370053,
							51.37684219040722
						],
						[
							-18.175559380378672,
							51.37684219040722
						],
						[
							-18.175559380378672,
							51.480112665833936
						],
						[
							-18.691910499139425,
							51.480112665833936
						],
						[
							-18.691910499139425,
							51.583383141260654
						],
						[
							-19.208261617900177,
							51.583383141260654
						],
						[
							-19.208261617900177,
							51.68665361668737
						],
						[
							-19.931153184165225,
							51.68665361668737
						],
						[
							-19.931153184165225,
							51.78992409211409
						],
						[
							-20.55077452667814,
							51.78992409211409
						],
						[
							-20.55077452667814,
							51.89319456754081
						],
						[
							-21.067125645438892,
							51.89319456754081
						],
						[
							-21.067125645438892,
							51.99646504296753
						],
						[
							-21.273666092943216,
							51.99646504296753
						],
						[
							-21.893287435456102,
							51.99646504296753
						],
						[
							-21.893287435456102,
							52.09973551839425
						],
						[
							-22.512908777969016,
							52.09973551839425
						],
						[
							-22.512908777969016,
							52.203005993820966
						],
						[
							-23.339070567986226,
							52.203005993820966
						],
						[
							-23.339070567986226,
							52.306276469247685
						],
						[
							-23.44234079173839,
							52.306276469247685
						],
						[
							-24.061962134251303,
							52.306276469247685
						],
						[
							-24.061962134251303,
							52.4095469446744
						],
						[
							-24.991394148020646,
							52.4095469446744
						],
						[
							-24.991394148020646,
							52.51281742010112
						],
						[
							-25.61101549053356,
							52.51281742010112
						],
						[
							-25.61101549053356,
							52.61608789552784
						],
						[
							-25.817555938037856,
							52.61608789552784
						],
						[
							-25.817555938037856,
							52.51281742010112
						],
						[
							-25.920826161790017,
							52.51281742010112
						],
						[
							-25.920826161790017,
							52.61608789552784
						],
						[
							-26.02409638554218,
							52.61608789552784
						],
						[
							-26.333907056798637,
							52.61608789552784
						],
						[
							-26.643717728055094,
							52.61608789552784
						],
						[
							-26.643717728055094,
							52.71935837095456
						],
						[
							-27.26333907056798,
							52.71935837095456
						],
						[
							-27.469879518072304,
							52.71935837095456
						],
						[
							-27.77969018932876,
							52.71935837095456
						],
						[
							-27.77969018932876,
							52.82262884638128
						],
						[
							-28.60585197934597,
							52.82262884638128
						],
						[
							-28.60585197934597,
							52.925899321808
						],
						[
							-28.812392426850266,
							52.925899321808
						],
						[
							-28.812392426850266,
							52.82262884638128
						],
						[
							-28.9156626506024,
							52.82262884638128
						],
						[
							-28.9156626506024,
							52.925899321808
						],
						[
							-29.01893287435456,
							52.925899321808
						],
						[
							-29.122203098106723,
							52.925899321808
						],
						[
							-29.84509466437177,
							52.925899321808
						],
						[
							-29.84509466437177,
							53.029169797234715
						],
						[
							-30.051635111876066,
							53.029169797234715
						],
						[
							-30.051635111876066,
							52.925899321808
						],
						[
							-30.15490533562823,
							52.925899321808
						],
						[
							-30.15490533562823,
							53.029169797234715
						],
						[
							-31.187607573149733,
							53.029169797234715
						],
						[
							-31.187607573149733,
							53.132440272661434
						],
						[
							-31.290877796901895,
							53.132440272661434
						],
						[
							-31.290877796901895,
							53.029169797234715
						],
						[
							-31.49741824440619,
							53.029169797234715
						],
						[
							-31.49741824440619,
							53.132440272661434
						],
						[
							-32.63339070567986,
							53.132440272661434
						],
						[
							-32.63339070567986,
							53.23571074808815
						],
						[
							-32.73666092943202,
							53.23571074808815
						],
						[
							-32.73666092943202,
							53.132440272661434
						],
						[
							-33.04647160068848,
							53.132440272661434
						],
						[
							-33.04647160068848,
							53.23571074808815
						],
						[
							-33.87263339070569,
							53.23571074808815
						],
						[
							-34.80206540447506,
							53.23571074808815
						],
						[
							-34.80206540447506,
							53.33898122351487
						],
						[
							-34.90533562822719,
							53.33898122351487
						],
						[
							-34.90533562822719,
							53.23571074808815
						],
						[
							-35.31841652323581,
							53.23571074808815
						],
						[
							-35.31841652323581,
							53.33898122351487
						],
						[
							-35.7314974182444,
							53.33898122351487
						],
						[
							-35.7314974182444,
							53.23571074808815
						],
						[
							-35.834767641996564,
							53.23571074808815
						],
						[
							-35.834767641996564,
							53.33898122351487
						],
						[
							-36.66092943201377,
							53.33898122351487
						],
						[
							-38.20998278829603,
							53.33898122351487
						],
						[
							-38.20998278829603,
							53.44225169894159
						],
						[
							-38.31325301204819,
							53.44225169894159
						],
						[
							-38.31325301204819,
							53.33898122351487
						],
						[
							-39.03614457831327,
							53.33898122351487
						],
						[
							-39.03614457831327,
							53.44225169894159
						],
						[
							-39.242685025817565,
							53.44225169894159
						],
						[
							-39.242685025817565,
							53.33898122351487
						],
						[
							-39.86230636833048,
							53.33898122351487
						],
						[
							-39.86230636833048,
							53.44225169894159
						],
						[
							-40.17211703958694,
							53.44225169894159
						],
						[
							-40.17211703958694,
							53.33898122351487
						],
						[
							-40.998278829604146,
							53.33898122351487
						],
						[
							-40.998278829604146,
							53.44225169894159
						],
						[
							-41.20481927710844,
							53.44225169894159
						],
						[
							-41.20481927710844,
							53.33898122351487
						],
						[
							-43.78657487091223,
							53.33898122351487
						],
						[
							-44.61273666092944,
							53.33898122351487
						],
						[
							-44.61273666092944,
							53.23571074808815
						],
						[
							-45.85197934595524,
							53.23571074808815
						],
						[
							-46.47160068846816,
							53.23571074808815
						],
						[
							-47.29776247848537,
							53.23571074808815
						],
						[
							-47.29776247848537,
							53.132440272661434
						],
						[
							-47.50430292598966,
							53.132440272661434
						],
						[
							-48.95008605851979,
							53.132440272661434
						],
						[
							-48.95008605851979,
							53.029169797234715
						],
						[
							-50.189328743545616,
							53.029169797234715
						],
						[
							-50.189328743545616,
							52.925899321808
						],
						[
							-50.39586919104991,
							52.925899321808
						],
						[
							-50.80895008605853,
							52.925899321808
						],
						[
							-51.11876075731499,
							52.925899321808
						],
						[
							-51.11876075731499,
							52.82262884638128
						],
						[
							-51.22203098106712,
							52.82262884638128
						],
						[
							-51.9449225473322,
							52.82262884638128
						],
						[
							-52.15146299483649,
							52.82262884638128
						],
						[
							-52.5645438898451,
							52.82262884638128
						],
						[
							-52.5645438898451,
							52.71935837095456
						],
						[
							-52.874354561101555,
							52.71935837095456
						],
						[
							-53.18416523235801,
							52.71935837095456
						],
						[
							-53.18416523235801,
							52.61608789552784
						],
						[
							-54.01032702237522,
							52.61608789552784
						],
						[
							-54.21686746987952,
							52.61608789552784
						],
						[
							-54.21686746987952,
							52.51281742010112
						],
						[
							-55.24956970740104,
							52.51281742010112
						],
						[
							-55.24956970740104,
							52.4095469446744
						],
						[
							-55.66265060240964,
							52.4095469446744
						],
						[
							-55.66265060240964,
							52.61608789552784
						],
						[
							-55.76592082616179,
							52.61608789552784
						],
						[
							-79.83616589640573,
							49.91713617734676
						],
						[
							-157.69363166953528,
							57.573070716010335
						],
						[
							-157.79690189328744,
							57.573070716010335
						],
						[
							-157.79690189328744,
							57.469800240583616
						],
						[
							-158.00344234079174,
							57.469800240583616
						],
						[
							-158.00344234079174,
							57.3665297651569
						],
						[
							-158.20998278829603,
							57.3665297651569
						],
						[
							-158.20998278829603,
							57.26325928973018
						],
						[
							-158.41652323580035,
							57.26325928973018
						],
						[
							-158.41652323580035,
							57.15998881430346
						],
						[
							-158.5197934595525,
							57.15998881430346
						],
						[
							-158.5197934595525,
							57.05671833887674
						],
						[
							-158.62306368330465,
							57.05671833887674
						],
						[
							-158.62306368330465,
							56.95344786345002
						],
						[
							-158.7263339070568,
							56.95344786345002
						],
						[
							-158.7263339070568,
							56.850177388023305
						],
						[
							-158.9328743545611,
							56.850177388023305
						],
						[
							-159.1394148020654,
							56.850177388023305
						],
						[
							-159.1394148020654,
							56.746906912596586
						],
						[
							-159.24268502581756,
							56.746906912596586
						],
						[
							-159.24268502581756,
							56.64363643716987
						],
						[
							-159.55249569707402,
							56.64363643716987
						],
						[
							-159.65576592082615,
							56.64363643716987
						],
						[
							-159.65576592082615,
							56.54036596174315
						],
						[
							-159.75903614457832,
							56.54036596174315
						],
						[
							-159.86230636833045,
							56.54036596174315
						],
						[
							-159.86230636833045,
							56.43709548631643
						],
						[
							-159.9655765920826,
							56.43709548631643
						],
						[
							-160.06884681583477,
							56.43709548631643
						],
						[
							-160.06884681583477,
							56.33382501088971
						],
						[
							-160.27538726333907,
							56.33382501088971
						],
						[
							-160.27538726333907,
							56.23055453546299
						],
						[
							-160.37865748709123,
							56.23055453546299
						],
						[
							-160.37865748709123,
							56.127284060036274
						],
						[
							-160.58519793459553,
							56.127284060036274
						],
						[
							-160.58519793459553,
							56.024013584609555
						],
						[
							-160.89500860585198,
							56.024013584609555
						],
						[
							-161.5146299483649,
							56.024013584609555
						],
						[
							-161.5146299483649,
							55.92074310918284
						],
						[
							-161.7211703958692,
							55.92074310918284
						],
						[
							-161.7211703958692,
							55.81747263375612
						],
						[
							-162.13425129087778,
							55.81747263375612
						],
						[
							-162.13425129087778,
							55.7142021583294
						],
						[
							-162.23752151462995,
							55.7142021583294
						],
						[
							-162.23752151462995,
							55.61093168290268
						],
						[
							-162.3407917383821,
							55.61093168290268
						],
						[
							-162.3407917383821,
							55.50766120747596
						],
						[
							-162.5473321858864,
							55.50766120747596
						],
						[
							-162.5473321858864,
							55.404390732049244
						],
						[
							-162.65060240963857,
							55.404390732049244
						],
						[
							-162.7538726333907,
							55.404390732049244
						],
						[
							-162.7538726333907,
							55.301120256622525
						],
						[
							-162.85714285714286,
							55.301120256622525
						],
						[
							-162.85714285714286,
							55.197849781195806
						],
						[
							-163.06368330464716,
							55.197849781195806
						],
						[
							-163.06368330464716,
							55.09457930576909
						],
						[
							-163.5800344234079,
							55.09457930576909
						],
						[
							-163.5800344234079,
							54.99130883034237
						],
						[
							-163.68330464716007,
							54.99130883034237
						],
						[
							-164.19965576592082,
							54.99130883034237
						],
						[
							-164.19965576592082,
							54.88803835491565
						],
						[
							-164.40619621342512,
							54.88803835491565
						],
						[
							-164.40619621342512,
							54.78476787948893
						],
						[
							-164.50946643717728,
							54.78476787948893
						],
						[
							-164.50946643717728,
							54.68149740406221
						],
						[
							-164.81927710843374,
							54.68149740406221
						],
						[
							-164.81927710843374,
							54.578226928635495
						],
						[
							-164.81927710843374,
							54.474956453208776
						],
						[
							-164.9225473321859,
							54.474956453208776
						],
						[
							-164.9225473321859,
							54.37168597778206
						],
						[
							-165.1290877796902,
							54.37168597778206
						],
						[
							-165.23235800344233,
							54.37168597778206
						],
						[
							-165.23235800344233,
							54.26841550235534
						],
						[
							-165.5421686746988,
							54.26841550235534
						],
						[
							-165.7487091222031,
							54.26841550235534
						],
						[
							-165.7487091222031,
							54.16514502692862
						],
						[
							-165.9552495697074,
							54.16514502692862
						],
						[
							-165.9552495697074,
							54.0618745515019
						],
						[
							-166.1617900172117,
							54.0618745515019
						],
						[
							-166.1617900172117,
							53.95860407607518
						],
						[
							-166.368330464716,
							53.95860407607518
						],
						[
							-166.368330464716,
							53.855333600648464
						],
						[
							-166.57487091222032,
							53.855333600648464
						],
						[
							-166.57487091222032,
							53.95860407607518
						],
						[
							-166.88468158347678,
							53.95860407607518
						],
						[
							-166.88468158347678,
							53.855333600648464
						],
						[
							-166.9879518072289,
							53.855333600648464
						],
						[
							-166.9879518072289,
							53.752063125221746
						],
						[
							-167.09122203098107,
							53.752063125221746
						],
						[
							-167.09122203098107,
							53.64879264979503
						],
						[
							-167.40103270223753,
							53.64879264979503
						],
						[
							-167.40103270223753,
							53.54552217436831
						],
						[
							-167.81411359724612,
							53.54552217436831
						],
						[
							-167.81411359724612,
							53.44225169894159
						],
						[
							-168.33046471600687,
							53.44225169894159
						],
						[
							-168.33046471600687,
							53.33898122351487
						],
						[
							-168.5370051635112,
							53.33898122351487
						],
						[
							-168.5370051635112,
							53.23571074808815
						],
						[
							-168.9500860585198,
							53.23571074808815
						],
						[
							-168.9500860585198,
							53.132440272661434
						],
						[
							-169.1566265060241,
							53.132440272661434
						],
						[
							-169.1566265060241,
							53.029169797234715
						],
						[
							-169.25989672977624,
							53.029169797234715
						],
						[
							-169.25989672977624,
							53.132440272661434
						],
						[
							-169.3631669535284,
							53.132440272661434
						],
						[
							-169.3631669535284,
							53.029169797234715
						],
						[
							-169.5697074010327,
							53.029169797234715
						],
						[
							-169.5697074010327,
							52.925899321808
						],
						[
							-169.776247848537,
							52.925899321808
						],
						[
							-169.98278829604132,
							52.925899321808
						],
						[
							-169.98278829604132,
							52.82262884638128
						],
						[
							-170.08605851979345,
							52.82262884638128
						],
						[
							-170.18932874354562,
							52.82262884638128
						],
						[
							-170.18932874354562,
							52.71935837095456
						],
						[
							-170.29259896729775,
							52.71935837095456
						],
						[
							-170.29259896729775,
							52.82262884638128
						],
						[
							-170.3958691910499,
							52.82262884638128
						],
						[
							-170.3958691910499,
							52.71935837095456
						],
						[
							-170.6024096385542,
							52.71935837095456
						],
						[
							-170.6024096385542,
							52.61608789552784
						],
						[
							-171.01549053356282,
							52.61608789552784
						],
						[
							-171.01549053356282,
							52.51281742010112
						],
						[
							-171.22203098106712,
							52.51281742010112
						],
						[
							-171.22203098106712,
							52.4095469446744
						],
						[
							-171.63511187607574,
							52.4095469446744
						],
						[
							-171.63511187607574,
							52.306276469247685
						],
						[
							-171.84165232358003,
							52.306276469247685
						],
						[
							-171.9449225473322,
							52.306276469247685
						],
						[
							-171.9449225473322,
							52.203005993820966
						],
						[
							-172.1514629948365,
							52.203005993820966
						],
						[
							-172.1514629948365,
							52.306276469247685
						],
						[
							-172.3580034423408,
							52.306276469247685
						],
						[
							-172.46127366609295,
							52.306276469247685
						],
						[
							-172.46127366609295,
							52.203005993820966
						],
						[
							-172.66781411359724,
							52.203005993820966
						],
						[
							-172.87435456110154,
							52.203005993820966
						],
						[
							-172.87435456110154,
							52.09973551839425
						],
						[
							-173.08089500860586,
							52.09973551839425
						],
						[
							-173.08089500860586,
							51.99646504296753
						],
						[
							-173.184165232358,
							51.99646504296753
						],
						[
							-173.184165232358,
							52.09973551839425
						],
						[
							-173.28743545611016,
							52.09973551839425
						],
						[
							-173.28743545611016,
							51.99646504296753
						]
					]
				]
			}
		}
	]
}